SL-14 R/B               
1 16792U 86046B   26053.11352538  .00000367  00000+0  39561-4 0  9996
2 16792  82.4793  94.9033 0021566 280.0786  79.7997 14.85573632124097
SL-14 R/B               
1 16882U 86055B   26053.16931080  .00000431  00000+0  46815-4 0  9998
2 16882  82.5228 141.2591 0019515  27.8330 352.3409 14.85625953117060
AJISAI (EGS)            
1 16908U 86061A   26053.13724637 -.00000079  00000+0  12855-3 0  9994
2 16908  50.0086 141.1721 0011232 246.9256 188.2325 12.44515409466061
COSMOS 1812             
1 17295U 87003A   26053.12557532  .00530521  13220-3  76360-3 0  9990
2 17295  82.4739 213.4221 0004651 294.1774  65.9020 16.05386488141977
SL-14 R/B               
1 17567U 87024B   26053.08528279  .00000378  00000+0  40277-4 0  9995
2 17567  82.5269 107.4323 0017069 315.9495  44.0360 14.86115965 85814
COSMOS 1833             
1 17589U 87027A   26053.14499552 -.00000078  00000+0 -16158-4 0  9990
2 17589  70.9234 358.6862 0024810 235.8586 124.0182 14.13057177  8122
SL-16 R/B               
1 17590U 87027B   26053.16370585  .00000207  00000+0  12646-3 0  9997
2 17590  71.0037 309.2131 0004226 171.5844 188.5351 14.17166000 13141
SL-14 R/B               
1 17912U 87038B   26053.13958142  .00000375  00000+0  40675-4 0  9995
2 17912  82.5029 311.4549 0018314 212.4140 147.5953 14.85353447 76928
COSMOS 1844             
1 17973U 87041A   26053.12594506  .00000140  00000+0  97627-4 0  9994
2 17973  70.8984  67.0041 0029233  42.3056 318.0313 14.14551635  1388
SL-14 R/B               
1 18153U 87055B   26053.11926071  .00000504  00000+0  55149-4 0  9992
2 18153  82.5017   3.7020 0022176  66.7000 293.6546 14.85607751 67622
COSMOS 1867             
1 18187U 87060A   26053.07171384 -.00000047  00000+0  20128-4 0  9991
2 18187  65.0126 350.4413 0014278 277.6572  82.2891 14.31500289 17703
SL-14 R/B               
1 18749U 88001B   26052.50723552  .00000484  00000+0  53239-4 0  9991
2 18749  82.5120 210.5785 0016720 293.9076  66.0388 14.85505672 39623
