CCSDS_OMM_VERS = 2.0
CREATION_DATE  = 
ORIGINATOR     = 

OBJECT_NAME    = SL-14 R/B
OBJECT_ID      = 1986-046B
CENTER_NAME    = EARTH
REF_FRAME      = TEME
TIME_SYSTEM    = UTC
MEAN_ELEMENT_THEORY = SGP/SGP4

EPOCH          = 2026-02-22T02:43:28.592832
MEAN_MOTION    = 14.85573632
ECCENTRICITY   = .0021566
INCLINATION    = 82.4793
RA_OF_ASC_NODE = 94.9033
ARG_OF_PERICENTER = 280.0786
MEAN_ANOMALY   = 79.7997

EPHEMERIS_TYPE = 0
CLASSIFICATION_TYPE = U
NORAD_CAT_ID   = 16792
ELEMENT_SET_NO = 999
REV_AT_EPOCH   = 12409
BSTAR          = .39561E-4
MEAN_MOTION_DOT = .367E-5
MEAN_MOTION_DDOT = 0

CCSDS_OMM_VERS = 2.0
CREATION_DATE  = 
ORIGINATOR     = 

OBJECT_NAME    = SL-14 R/B
OBJECT_ID      = 1986-055B
CENTER_NAME    = EARTH
REF_FRAME      = TEME
TIME_SYSTEM    = UTC
MEAN_ELEMENT_THEORY = SGP/SGP4

EPOCH          = 2026-02-22T04:03:48.453120
MEAN_MOTION    = 14.85625953
ECCENTRICITY   = .0019515
INCLINATION    = 82.5228
RA_OF_ASC_NODE = 141.2591
ARG_OF_PERICENTER = 27.8330
MEAN_ANOMALY   = 352.3409

EPHEMERIS_TYPE = 0
CLASSIFICATION_TYPE = U
NORAD_CAT_ID   = 16882
ELEMENT_SET_NO = 999
REV_AT_EPOCH   = 11706
BSTAR          = .46815E-4
MEAN_MOTION_DOT = .431E-5
MEAN_MOTION_DDOT = 0

CCSDS_OMM_VERS = 2.0
CREATION_DATE  = 
ORIGINATOR     = 

OBJECT_NAME    = AJISAI (EGS)
OBJECT_ID      = 1986-061A
CENTER_NAME    = EARTH
REF_FRAME      = TEME
TIME_SYSTEM    = UTC
MEAN_ELEMENT_THEORY = SGP/SGP4

EPOCH          = 2026-02-22T03:17:38.086368
MEAN_MOTION    = 12.44515409
ECCENTRICITY   = .0011232
INCLINATION    = 50.0086
RA_OF_ASC_NODE = 141.1721
ARG_OF_PERICENTER = 246.9256
MEAN_ANOMALY   = 188.2325

EPHEMERIS_TYPE = 0
CLASSIFICATION_TYPE = U
NORAD_CAT_ID   = 16908
ELEMENT_SET_NO = 999
REV_AT_EPOCH   = 46606
BSTAR          = .12855E-3
MEAN_MOTION_DOT = -.79E-6
MEAN_MOTION_DDOT = 0

CCSDS_OMM_VERS = 2.0
CREATION_DATE  = 
ORIGINATOR     = 

OBJECT_NAME    = COSMOS 1812
OBJECT_ID      = 1987-003A
CENTER_NAME    = EARTH
REF_FRAME      = TEME
TIME_SYSTEM    = UTC
MEAN_ELEMENT_THEORY = SGP/SGP4

EPOCH          = 2026-02-22T03:00:49.707648
MEAN_MOTION    = 16.05386488
ECCENTRICITY   = .0004651
INCLINATION    = 82.4739
RA_OF_ASC_NODE = 213.4221
ARG_OF_PERICENTER = 294.1774
MEAN_ANOMALY   = 65.9020

EPHEMERIS_TYPE = 0
CLASSIFICATION_TYPE = U
NORAD_CAT_ID   = 17295
ELEMENT_SET_NO = 999
REV_AT_EPOCH   = 14197
BSTAR          = .7636E-3
MEAN_MOTION_DOT = .530521E-2
MEAN_MOTION_DDOT = .1322E-3

CCSDS_OMM_VERS = 2.0
CREATION_DATE  = 
ORIGINATOR     = 

OBJECT_NAME    = SL-14 R/B
OBJECT_ID      = 1987-024B
CENTER_NAME    = EARTH
REF_FRAME      = TEME
TIME_SYSTEM    = UTC
MEAN_ELEMENT_THEORY = SGP/SGP4

EPOCH          = 2026-02-22T02:02:48.433056
MEAN_MOTION    = 14.86115965
ECCENTRICITY   = .0017069
INCLINATION    = 82.5269
RA_OF_ASC_NODE = 107.4323
ARG_OF_PERICENTER = 315.9495
MEAN_ANOMALY   = 44.0360

EPHEMERIS_TYPE = 0
CLASSIFICATION_TYPE = U
NORAD_CAT_ID   = 17567
ELEMENT_SET_NO = 999
REV_AT_EPOCH   = 8581
BSTAR          = .40277E-4
MEAN_MOTION_DOT = .378E-5
MEAN_MOTION_DDOT = 0

CCSDS_OMM_VERS = 2.0
CREATION_DATE  = 
ORIGINATOR     = 

OBJECT_NAME    = COSMOS 1833
OBJECT_ID      = 1987-027A
CENTER_NAME    = EARTH
REF_FRAME      = TEME
TIME_SYSTEM    = UTC
MEAN_ELEMENT_THEORY = SGP/SGP4

EPOCH          = 2026-02-22T03:28:47.612928
MEAN_MOTION    = 14.13057177
ECCENTRICITY   = .002481
INCLINATION    = 70.9234
RA_OF_ASC_NODE = 358.6862
ARG_OF_PERICENTER = 235.8586
MEAN_ANOMALY   = 124.0182

EPHEMERIS_TYPE = 0
CLASSIFICATION_TYPE = U
NORAD_CAT_ID   = 17589
ELEMENT_SET_NO = 999
REV_AT_EPOCH   = 812
BSTAR          = -.16158E-4
MEAN_MOTION_DOT = -.78E-6
MEAN_MOTION_DDOT = 0

CCSDS_OMM_VERS = 2.0
CREATION_DATE  = 
ORIGINATOR     = 

OBJECT_NAME    = SL-16 R/B
OBJECT_ID      = 1987-027B
CENTER_NAME    = EARTH
REF_FRAME      = TEME
TIME_SYSTEM    = UTC
MEAN_ELEMENT_THEORY = SGP/SGP4

EPOCH          = 2026-02-22T03:55:44.185440
MEAN_MOTION    = 14.17166000
ECCENTRICITY   = .0004226
INCLINATION    = 71.0037
RA_OF_ASC_NODE = 309.2131
ARG_OF_PERICENTER = 171.5844
MEAN_ANOMALY   = 188.5351

EPHEMERIS_TYPE = 0
CLASSIFICATION_TYPE = U
NORAD_CAT_ID   = 17590
ELEMENT_SET_NO = 999
REV_AT_EPOCH   = 1314
BSTAR          = .12646E-3
MEAN_MOTION_DOT = .207E-5
MEAN_MOTION_DDOT = 0

CCSDS_OMM_VERS = 2.0
CREATION_DATE  = 
ORIGINATOR     = 

OBJECT_NAME    = SL-14 R/B
OBJECT_ID      = 1987-038B
CENTER_NAME    = EARTH
REF_FRAME      = TEME
TIME_SYSTEM    = UTC
MEAN_ELEMENT_THEORY = SGP/SGP4

EPOCH          = 2026-02-22T03:20:59.834688
MEAN_MOTION    = 14.85353447
ECCENTRICITY   = .0018314
INCLINATION    = 82.5029
RA_OF_ASC_NODE = 311.4549
ARG_OF_PERICENTER = 212.4140
MEAN_ANOMALY   = 147.5953

EPHEMERIS_TYPE = 0
CLASSIFICATION_TYPE = U
NORAD_CAT_ID   = 17912
ELEMENT_SET_NO = 999
REV_AT_EPOCH   = 7692
BSTAR          = .40675E-4
MEAN_MOTION_DOT = .375E-5
MEAN_MOTION_DDOT = 0

CCSDS_OMM_VERS = 2.0
CREATION_DATE  = 
ORIGINATOR     = 

OBJECT_NAME    = COSMOS 1844
OBJECT_ID      = 1987-041A
CENTER_NAME    = EARTH
REF_FRAME      = TEME
TIME_SYSTEM    = UTC
MEAN_ELEMENT_THEORY = SGP/SGP4

EPOCH          = 2026-02-22T03:01:21.653184
MEAN_MOTION    = 14.14551635
ECCENTRICITY   = .0029233
INCLINATION    = 70.8984
RA_OF_ASC_NODE = 67.0041
ARG_OF_PERICENTER = 42.3056
MEAN_ANOMALY   = 318.0313

EPHEMERIS_TYPE = 0
CLASSIFICATION_TYPE = U
NORAD_CAT_ID   = 17973
ELEMENT_SET_NO = 999
REV_AT_EPOCH   = 138
BSTAR          = .97627E-4
MEAN_MOTION_DOT = .14E-5
MEAN_MOTION_DDOT = 0

CCSDS_OMM_VERS = 2.0
CREATION_DATE  = 
ORIGINATOR     = 

OBJECT_NAME    = SL-14 R/B
OBJECT_ID      = 1987-055B
CENTER_NAME    = EARTH
REF_FRAME      = TEME
TIME_SYSTEM    = UTC
MEAN_ELEMENT_THEORY = SGP/SGP4

EPOCH          = 2026-02-22T02:51:44.125344
MEAN_MOTION    = 14.85607751
ECCENTRICITY   = .0022176
INCLINATION    = 82.5017
RA_OF_ASC_NODE = 3.7020
ARG_OF_PERICENTER = 66.7000
MEAN_ANOMALY   = 293.6546

EPHEMERIS_TYPE = 0
CLASSIFICATION_TYPE = U
NORAD_CAT_ID   = 18153
ELEMENT_SET_NO = 999
REV_AT_EPOCH   = 6762
BSTAR          = .55149E-4
MEAN_MOTION_DOT = .504E-5
MEAN_MOTION_DDOT = 0

CCSDS_OMM_VERS = 2.0
CREATION_DATE  = 
ORIGINATOR     = 

OBJECT_NAME    = COSMOS 1867
OBJECT_ID      = 1987-060A
CENTER_NAME    = EARTH
REF_FRAME      = TEME
TIME_SYSTEM    = UTC
MEAN_ELEMENT_THEORY = SGP/SGP4

EPOCH          = 2026-02-22T01:43:16.075776
MEAN_MOTION    = 14.31500289
ECCENTRICITY   = .0014278
INCLINATION    = 65.0126
RA_OF_ASC_NODE = 350.4413
ARG_OF_PERICENTER = 277.6572
MEAN_ANOMALY   = 82.2891

EPHEMERIS_TYPE = 0
CLASSIFICATION_TYPE = U
NORAD_CAT_ID   = 18187
ELEMENT_SET_NO = 999
REV_AT_EPOCH   = 1770
BSTAR          = .20128E-4
MEAN_MOTION_DOT = -.47E-6
MEAN_MOTION_DDOT = 0

CCSDS_OMM_VERS = 2.0
CREATION_DATE  = 
ORIGINATOR     = 

OBJECT_NAME    = SL-14 R/B
OBJECT_ID      = 1988-001B
CENTER_NAME    = EARTH
REF_FRAME      = TEME
TIME_SYSTEM    = UTC
MEAN_ELEMENT_THEORY = SGP/SGP4

EPOCH          = 2026-02-21T12:10:25.148928
MEAN_MOTION    = 14.85505672
ECCENTRICITY   = .001672
INCLINATION    = 82.5120
RA_OF_ASC_NODE = 210.5785
ARG_OF_PERICENTER = 293.9076
MEAN_ANOMALY   = 66.0388

EPHEMERIS_TYPE = 0
CLASSIFICATION_TYPE = U
NORAD_CAT_ID   = 18749
ELEMENT_SET_NO = 999
REV_AT_EPOCH   = 3962
BSTAR          = .53239E-4
MEAN_MOTION_DOT = .484E-5
MEAN_MOTION_DDOT = 0

